0 INTELSAT 4A-F1
1 08330U 75091A   13282.09549649 -.00000287  00000-0  10000-3 0  1970
2 08330 014.7646 350.3575 0009373 124.5969 235.5005 00.99928153 75165
0 INTELSAT 4A-F1
1 08330U 75091A   13284.09686461 -.00000285  00000-0  10000-3 0  1985
2 08330 014.7644 350.3368 0009445 124.2895 235.8065 00.99927398 75189
0 INTELSAT 4A-F1
1 08330U 75091A   13286.09824154 -.00000281  00000-0  10000-3 0  1997
2 08330 014.7641 350.3163 0009488 124.3461 235.7457 00.99926656 75209
0 INTELSAT 4A-F1
1 08330U 75091A   13288.09962455 -.00000275  00000-0  10000-3 0  2002
2 08330 014.7638 350.2958 0009389 125.5304 234.5515 00.99925926 75228
0 INTELSAT 4A-F1
1 08330U 75091A   13290.10103024 -.00000265  00000-0  10000-3 0  2016
2 08330 014.7636 350.2754 0009493 125.9577 234.1184 00.99925217 75245
0 INTELSAT 4A-F1
1 08330U 75091A   13293.10317015 -.00000244  00000-0  10000-3 0  2024
2 08330 014.7631 350.2444 0009521 126.0827 233.9917 00.99924268 75277
0 INTELSAT 4A-F1
1 08330U 75091A   13294.10389336 -.00000237  00000-0  10000-3 0  2033
2 08330 014.7630 350.2343 0009274 126.5560 233.5139 00.99923938 75284
